NORAD_CAT_ID,OBJECT_NAME,OBJECT_TYPE,EPOCH,MEAN_MOTION,ECCENTRICITY,INCLINATION,RA_OF_ASC_NODE,ARG_OF_PERICENTER,MEAN_ANOMALY,BSTAR,MEAN_MOTION_DOT,MEAN_MOTION_DDOT,TLE_LINE0,TLE_LINE1,TLE_LINE2,SEMIMAJOR_AXIS,PERIOD,APOGEE,PERIGEE,DECAYED
53606.0,STARLINK-4590,PAYLOAD,2024-02-17 06:19:57,15.0885019,0.0001399,53.2195,7.5161,110.4352,249.679,0.00017498,2.499e-05,0.0,0 STARLINK-4590,1 53606U 22104U   24048.26386526  .00002499  00000-0  17498-3 0  9991,2 53606  53.2195   7.5161 0001399 110.4352 249.6790 15.08850190 81626,6917.849,95.437,540.682,538.746,0.0
53606.0,STARLINK-4590,PAYLOAD,2024-02-17 14:16:54,15.08843721,0.0001571,53.2188,6.0273,82.6144,277.5027,0.00010063,1.314e-05,0.0,0 STARLINK-4590,1 53606U 22104U   24048.59507173  .00001314  00000-0  10063-3 0  9996,2 53606  53.2188   6.0273 0001571  82.6144 277.5027 15.08843721 82241,6917.869,95.437,540.821,538.647,0.0
53606.0,STARLINK-4590,PAYLOAD,2024-02-17 20:38:26,15.08838924,0.0001675,53.2185,4.8397,83.7752,276.3431,0.00013894,1.924e-05,0.0,0 STARLINK-4590,1 53606U 22104U   24048.86003401  .00001924  00000-0  13894-3 0  9993,2 53606  53.2185   4.8397 0001675  83.7752 276.3431 15.08838924 81719,6917.884,95.438,540.907,538.59,0.0
53606.0,STARLINK-4590,PAYLOAD,2024-02-18 06:10:44,15.08854933,0.0001438,53.2195,3.0536,78.663,281.4523,0.00012045,1.63e-05,0.0,0 STARLINK-4590,1 53606U 22104U   24049.25746371  .00001630  00000-0  12045-3 0  9998,2 53606  53.2195   3.0536 0001438  78.6630 281.4523 15.08854933 81774,6917.835,95.437,540.695,538.705,0.0
53606.0,STARLINK-4590,PAYLOAD,2024-02-18 14:07:40,15.08849507,0.0001482,53.2195,1.5678,87.91,272.2062,3.8385e-05,3.23e-06,0.0,0 STARLINK-4590,1 53606U 22104U   24049.58866760  .00000323  00000-0  38385-4 0  9993,2 53606  53.2195   1.5678 0001482  87.9100 272.2062 15.08849507 82394,6917.851,95.437,540.742,538.691,0.0
53606.0,STARLINK-4590,PAYLOAD,2024-02-18 20:29:13,15.08841587,0.0001556,53.2191,0.3792,86.7302,273.3868,8.0486e-05,9.93e-06,0.0,0 STARLINK-4590,1 53606U 22104U   24049.85363152  .00000993  00000-0  80486-4 0  9992,2 53606  53.2191   0.3792 0001556  86.7302 273.3868 15.08841587 81864,6917.876,95.437,540.817,538.664,0.0
53606.0,STARLINK-4590,PAYLOAD,2024-02-19 06:01:31,15.08857289,0.0001349,53.2182,358.5923,106.4201,253.694,8.1325e-05,1.007e-05,0.0,0 STARLINK-4590,1 53606U 22104U   24050.25105909  .00001007  00000-0  81325-4 0  9992,2 53606  53.2182 358.5923 0001349 106.4201 253.6940 15.08857289 81921,6917.828,95.436,540.626,538.759,0.0
53606.0,STARLINK-4590,PAYLOAD,2024-02-19 13:58:28,15.08835364,0.0002017,53.2189,357.1087,76.4244,283.6973,-5.362e-05,-1.141e-05,0.0,0 STARLINK-4590,1 53606U 22104U   24050.58227926 -.00001141  00000-0 -53620-4 0  9990,2 53606  53.2189 357.1087 0002017  76.4244 283.6973 15.08835364 82548,6917.895,95.438,541.155,538.364,0.0
53606.0,STARLINK-4590,PAYLOAD,2024-02-20 02:41:34,15.08829697,0.0001576,53.219,354.7292,84.0375,276.0797,-2.2152e-05,-6.4e-06,0.0,0 STARLINK-4590,1 53606U 22104U   24051.11220280 -.00000640  00000-0 -22152-4 0  9995,2 53606  53.2190 354.7292 0001576  84.0375 276.0797 15.08829697 82621,6917.912,95.438,540.867,538.687,0.0
53606.0,STARLINK-4590,PAYLOAD,2024-02-20 20:10:48,15.08841295,0.0001403,53.2188,351.4582,90.8224,269.2928,7.4192e-05,8.93e-06,0.0,0 STARLINK-4590,1 53606U 22104U   24051.84083349  .00000893  00000-0  74192-4 0  9997,2 53606  53.2188 351.4582 0001403  90.8224 269.2928 15.08841295 82168,6917.876,95.437,540.712,538.771,0.0
53606.0,STARLINK-4590,PAYLOAD,2024-02-20 23:21:33,15.08845725,0.000137,53.2188,350.8643,87.6178,272.497,0.00015053,2.109e-05,0.0,0 STARLINK-4590,1 53606U 22104U   24051.97330888  .00002109  00000-0  15053-3 0  9996,2 53606  53.2188 350.8643 0001370  87.6178 272.4970 15.08845725 82754,6917.863,95.437,540.676,538.78,0.0
53606.0,STARLINK-4590,PAYLOAD,2024-02-21 02:32:19,15.0885388,0.0001436,53.2192,350.2687,93.3919,266.7237,0.00013062,1.792e-05,0.0,0 STARLINK-4590,1 53606U 22104U   24052.10578481  .00001792  00000-0  13062-3 0  9990,2 53606  53.2192 350.2687 0001436  93.3919 266.7237 15.08853880 82204,6917.838,95.437,540.696,538.71,0.0
53606.0,STARLINK-4590,PAYLOAD,2024-02-22 02:23:07,15.08839227,0.0001617,53.2184,345.8076,116.2602,243.8557,0.00011657,1.568e-05,0.0,0 STARLINK-4590,1 53606U 22104U   24053.09939561  .00001568  00000-0  11657-3 0  9998,2 53606  53.2184 345.8076 0001617 116.2602 243.8557 15.08839227 82358,6917.883,95.438,540.866,538.629,0.0
53606.0,STARLINK-4590,PAYLOAD,2024-02-22 11:55:26,15.08839923,0.0001383,53.2184,344.0291,97.5385,262.5765,4.9539e-05,5.01e-06,0.0,0 STARLINK-4590,1 53606U 22104U   24053.49683631  .00000501  00000-0  49539-4 0  9993,2 53606  53.2184 344.0291 0001383  97.5385 262.5765 15.08839923 82988,6917.881,95.438,540.702,538.789,0.0
53606.0,STARLINK-4590,PAYLOAD,2024-02-23 03:49:19,15.08832994,0.0001439,53.2192,341.0523,107.7177,252.3973,-7.7986e-05,-1.529e-05,0.0,0 STARLINK-4590,1 53606U 22104U   24054.15925268 -.00001529  00000-0 -77986-4 0  9992,2 53606  53.2192 341.0523 0001439 107.7177 252.3973 15.08832994 82515,6917.902,95.438,540.762,538.771,0.0
53606.0,STARLINK-4590,PAYLOAD,2024-02-23 11:46:14,15.08835724,0.0001419,53.2183,339.565,123.4879,236.6249,4.7853e-05,4.74e-06,0.0,0 STARLINK-4590,1 53606U 22104U   24054.49044875  .00000474  00000-0  47853-4 0  9991,2 53606  53.2183 339.5650 0001419 123.4879 236.6249 15.08835724 83134,6917.893,95.438,540.74,538.777,0.0
53606.0,STARLINK-4590,PAYLOAD,2024-02-23 22:53:56,15.08849007,9.57e-05,53.2174,337.4812,93.6074,266.5027,0.00015339,2.155e-05,0.0,0 STARLINK-4590,1 53606U 22104U   24054.95412089  .00002155  00000-0  15339-3 0  9999,2 53606  53.2174 337.4812 0000957  93.6074 266.5027 15.08849007 83205,6917.853,95.437,540.38,539.056,0.0
53606.0,STARLINK-4590,PAYLOAD,2024-02-24 03:40:05,15.0885688,0.0001296,53.2181,336.5903,97.6495,262.4644,0.0004325,6.605e-05,0.0,0 STARLINK-4590,1 53606U 22104U   24055.15283980  .00006605  00000-0  43250-3 0  9995,2 53606  53.2181 336.5903 0001296  97.6495 262.4644 15.08856880 82668,6917.829,95.436,540.59,538.797,0.0
53606.0,STARLINK-4590,PAYLOAD,2024-02-24 05:15:28,15.08859974,0.000132,53.2181,336.2923,102.0999,258.0141,0.00049478,7.6e-05,0.0,0 STARLINK-4590,1 53606U 22104U   24055.21907907  .00007600  00000-0  49478-3 0  9998,2 53606  53.2181 336.2923 0001320 102.0999 258.0141 15.08859974 83240,6917.819,95.436,540.597,538.771,0.0
53606.0,STARLINK-4590,PAYLOAD,2024-02-25 03:30:52,15.08852386,0.000159,53.218,332.1254,95.1935,264.9239,0.00017806,2.548e-05,0.0,0 STARLINK-4590,1 53606U 22104U   24056.14644134  .00002548  00000-0  17806-3 0  9997,2 53606  53.2180 332.1254 0001590  95.1935 264.9239 15.08852386 82818,6917.843,95.437,540.807,538.608,0.0
53606.0,STARLINK-4590,PAYLOAD,2024-02-25 11:27:48,15.08849235,0.0001546,53.2183,330.6392,92.9969,267.12,0.00013591,1.876e-05,0.0,0 STARLINK-4590,1 53606U 22104U   24056.47764153  .00001876  00000-0  13591-3 0  9997,2 53606  53.2183 330.6392 0001546  92.9969 267.1200 15.08849235 83431,6917.852,95.437,540.787,538.648,0.0
53606.0,STARLINK-4590,PAYLOAD,2024-02-25 22:35:29,15.08855533,0.0001441,53.2184,328.5574,93.4311,266.6846,8.5243e-05,1.069e-05,0.0,0 STARLINK-4590,1 53606U 22104U   24056.94131427  .00001069  00000-0  85243-4 0  9999,2 53606  53.2184 328.5574 0001441  93.4311 266.6846 15.08855533 83507,6917.833,95.437,540.695,538.701,0.0
53606.0,STARLINK-4590,PAYLOAD,2024-02-26 01:46:15,15.08860962,0.0001449,53.2168,327.9682,92.3273,267.7886,7.3304e-05,8.79e-06,0.0,0 STARLINK-4590,1 53606U 22104U   24057.07379074  .00000879  00000-0  73304-4 0  9999,2 53606  53.2168 327.9682 0001449  92.3273 267.7886 15.08860962 83525,6917.816,95.436,540.684,538.679,0.0
53606.0,STARLINK-4590,PAYLOAD,2024-02-26 17:40:07,15.08839897,0.0001541,53.2169,324.9942,92.3869,267.7299,-9.4421e-06,-4.38e-06,0.0,0 STARLINK-4590,1 53606U 22104U   24057.73620035 -.00000438  00000-0 -94421-5 0  9995,2 53606  53.2169 324.9942 0001541  92.3869 267.7299 15.08839897 83055,6917.881,95.438,540.812,538.68,0.0
53606.0,STARLINK-4590,PAYLOAD,2024-02-26 22:26:17,15.08836448,0.0001424,53.2163,324.1004,97.9525,262.1629,-7.9167e-06,-4.14e-06,0.0,0 STARLINK-4590,1 53606U 22104U   24057.93492234 -.00000414  00000-0 -79167-5 0  9999,2 53606  53.2163 324.1004 0001424  97.9525 262.1629 15.08836448 83651,6917.891,95.438,540.741,538.771,0.0
53606.0,STARLINK-4590,PAYLOAD,2024-02-27 11:09:22,15.08837517,0.0001475,53.2176,321.7208,98.6136,261.5023,3.0947e-05,2.05e-06,0.0,0 STARLINK-4590,1 53606U 22104U   24058.46484336  .00000205  00000-0  30947-4 0  9990,2 53606  53.2176 321.7208 0001475  98.6136 261.5023 15.08837517 83734,6917.888,95.438,540.773,538.733,0.0
53606.0,STARLINK-4590,PAYLOAD,2024-02-27 22:17:04,15.08842775,0.000147,53.2174,319.6396,89.4033,270.7127,0.00011295,1.51e-05,0.0,0 STARLINK-4590,1 53606U 22104U   24058.92852155  .00001510  00000-0  11295-3 0  9993,2 53606  53.2174 319.6396 0001470  89.4033 270.7127 15.08842775 83802,6917.872,95.437,540.754,538.72,0.0
53606.0,STARLINK-4590,PAYLOAD,2024-02-28 03:03:13,15.08849407,0.0001517,53.2173,318.7465,97.1962,262.9202,0.00014133,1.963e-05,0.0,0 STARLINK-4590,1 53606U 22104U   24059.12723772  .00001963  00000-0  14133-3 0  9994,2 53606  53.2173 318.7465 0001517  97.1962 262.9202 15.08849407 83263,6917.852,95.437,540.766,538.667,0.0
53606.0,STARLINK-4590,PAYLOAD,2024-02-28 17:21:42,15.08837683,0.0001775,53.2168,316.0704,91.213,268.9066,0.00014468,2.015e-05,0.0,0 STARLINK-4590,1 53606U 22104U   24059.72340621  .00002015  00000-0  14468-3 0  9998,2 53606  53.2168 316.0704 0001775  91.2130 268.9066 15.08837683 83359,6917.887,95.438,540.98,538.525,0.0
53606.0,STARLINK-4590,PAYLOAD,2024-02-28 22:07:51,15.08838179,0.0001541,53.2171,315.1785,95.8759,264.2409,0.00014309,1.99e-05,0.0,0 STARLINK-4590,1 53606U 22104U   24059.92212613  .00001990  00000-0  14309-3 0  9994,2 53606  53.2171 315.1785 0001541  95.8759 264.2409 15.08838179 83957,6917.886,95.438,540.817,538.685,0.0
